H1 CPF 01  gfz 2021 02 01 13  5322 terrasarx 
H2 0702601  6201 31698    2021 02 01 12 59 42 2021 02 06 00 00 42   120 1 1  0 0 0
H9
10 0 59249  19422.000000  0    2978242.592   1297178.936   6064303.238
10 0 59249  19542.000000  0    3771836.230   1331956.469   5598302.884
10 0 59249  19662.000000  0    4499851.216   1330157.541   5033841.051
10 0 59249  19782.000000  0    5148913.914   1293069.481   4380810.861
10 0 59249  19902.000000  0    5707053.913   1222818.763   3650675.673
10 0 59249  20022.000000  0    6163934.894   1122309.217   2856268.864
10 0 59249  20142.000000  0    6511054.711    995141.266   2011567.921
10 0 59249  20262.000000  0    6741913.342    845515.881   1131446.040
10 0 59249  20382.000000  0    6852141.596    678124.436    231403.699
10 0 59249  20502.000000  0    6839588.262    498027.330   -672711.940
10 0 59249  20622.000000  0    6704361.900    310524.486  -1564995.912
10 0 59249  20742.000000  0    6448826.084    121021.295  -2429773.479
10 0 59249  20862.000000  0    6077550.387    -65107.083  -3251881.519
10 0 59249  20982.000000  0    5597218.358   -242648.906  -4016938.308
10 0 59249  21102.000000  0    5016494.261   -406683.271  -4711595.710
10 0 59249  21222.000000  0    4345853.267   -552698.154  -5323767.497
10 0 59249  21342.000000  0    3597382.086   -676697.236  -5842831.939
10 0 59249  21462.000000  0    2784552.824   -775294.156  -6259807.155
10 0 59249  21582.000000  0    1921974.521   -845790.783  -6567495.259
10 0 59249  21702.000000  0    1025129.678   -886238.777  -6760594.797
10 0 59249  21822.000000  0     110099.019   -895484.749  -6835783.367
10 0 59249  21942.000000  0    -806722.149   -873196.388  -6791768.032
10 0 59249  22062.000000  0   -1708910.436   -819870.856  -6629305.231
10 0 59249  22182.000000  0   -2580302.412   -736824.382  -6351189.035
10 0 59249  22302.000000  0   -3405277.305   -626163.811  -5962206.971
10 0 59249  22422.000000  0   -4169032.476   -490740.423  -5469067.796
10 0 59249  22542.000000  0   -4857850.215   -334086.254  -4880296.839
10 0 59249  22662.000000  0   -5459347.490   -160334.278  -4206099.862
10 0 59249  22782.000000  0   -5962706.984     25876.225  -3458197.825
10 0 59249  22902.000000  0   -6358883.121    219508.364  -2649630.922
10 0 59249  23022.000000  0   -6640777.587    415247.475  -1794536.445
10 0 59249  23142.000000  0   -6803380.008    607630.280   -907902.725
10 0 59249  23262.000000  0   -6843869.586    791178.869     -5302.077
10 0 59249  23382.000000  0   -6761670.775    960537.210    897389.586
10 0 59249  23502.000000  0   -6558465.939   1110606.434   1784278.828
10 0 59249  23622.000000  0   -6238163.287   1236675.433   2639743.769
10 0 59249  23742.000000  0   -5806818.804   1334543.043   3448718.538
10 0 59249  23862.000000  0   -5272514.438   1400628.601   4196965.696
10 0 59249  23982.000000  0   -4645197.149   1432068.356   4871330.189
10 0 59249  24102.000000  0   -3936483.919   1426795.278   5459970.749
10 0 59249  24222.000000  0   -3159437.979   1383600.815   5952565.543
10 0 59249  24342.000000  0   -2328320.380   1302177.300   6340490.039
10 0 59249  24462.000000  0   -1458320.732   1183140.616   6616962.942
10 0 59249  24582.000000  0    -565274.865   1028031.727   6777157.240
10 0 59249  24702.000000  0     334624.087    839298.081   6818278.286
10 0 59249  24822.000000  0    1225118.318    620254.754   6739609.172
10 0 59249  24942.000000  0    2090177.664    375026.537   6542522.434
10 0 59249  25062.000000  0    2914287.026    108471.272   6230458.289
10 0 59249  25182.000000  0    3682725.831   -173914.645   5808869.414
10 0 59249  25302.000000  0    4381833.911   -466107.058   5285130.674
10 0 59249  25422.000000  0    4999259.191   -761679.030   4668416.370
10 0 59249  25542.000000  0    5524183.440  -1053937.911   3969545.071
10 0 59249  25662.000000  0    5947520.915  -1336072.134   3200793.905
10 0 59249  25782.000000  0    6262085.670  -1601304.088   2375683.612
10 0 59249  25902.000000  0    6462722.511  -1843045.442   1508738.832
10 0 59249  26022.000000  0    6546398.537  -2055051.310    615227.902
10 0 59249  26142.000000  0    6512252.544  -2231570.317   -289113.461
10 0 59249  26262.000000  0    6361599.915  -2367484.603  -1188368.585
10 0 59249  26382.000000  0    6097893.570  -2458437.645  -2066728.968
10 0 59249  26502.000000  0    5726641.380  -2500946.111  -2908779.943
10 0 59249  26622.000000  0    5255283.480  -2492492.453  -3699775.763
10 0 59249  26742.000000  0    4693034.105  -2431597.264  -4425898.873
10 0 59249  26862.000000  0    4050691.705  -2317869.881  -5074499.805
10 0 59249  26982.000000  0    3340420.882  -2152035.891  -5634311.916
10 0 59249  27102.000000  0    2575514.296  -1935941.355  -6095636.819
10 0 59249  27222.000000  0    1770141.141  -1672534.647  -6450502.068
10 0 59249  27342.000000  0     939082.909  -1365825.688  -6692789.164
10 0 59249  27462.000000  0      97463.623  -1020824.158  -6818327.932
10 0 59249  27582.000000  0    -739520.652   -643458.190  -6824960.142
10 0 59249  27702.000000  0   -1556869.628   -240474.569  -6712572.441
10 0 59249  27822.000000  0   -2340041.816    180679.264  -6483097.681
10 0 59249  27942.000000  0   -3075207.060    611988.858  -6140484.427
10 0 59249  28062.000000  0   -3749486.266   1045020.641  -5690637.011
10 0 59249  28182.000000  0   -4351177.213   1471082.055  -5141324.572
10 0 59249  28302.000000  0   -4869961.201   1881392.002  -4502058.876
10 0 59249  28422.000000  0   -5297087.191   2267259.792  -3783940.397
10 0 59249  28542.000000  0   -5625527.885   2620266.370  -2999474.416
10 0 59249  28662.000000  0   -5850106.062   2932445.540  -2162360.282
10 0 59249  28782.000000  0   -5967587.249   3196461.159  -1287255.098
10 0 59249  28902.000000  0   -5976734.683   3405775.983   -389515.744
10 0 59249  29022.000000  0   -5878325.054   3554807.120    515075.438
10 0 59249  29142.000000  0   -5675123.513   3639063.393   1410596.823
10 0 59249  29262.000000  0   -5371816.599   3655261.325   2281276.866
10 0 59249  29382.000000  0   -4974906.836   3601416.674   3111780.249
10 0 59249  29502.000000  0   -4492572.352   3476909.094   3887485.535
10 0 59249  29622.000000  0   -3934493.164   3282518.160   4594748.145
10 0 59249  29742.000000  0   -3311650.928   3020430.003   5221141.785
10 0 59249  29862.000000  0   -2636106.421   2694216.424   5755676.744
10 0 59249  29982.000000  0   -1920759.102   2308785.059   6188989.320
10 0 59249  30102.000000  0   -1179095.378   1870302.545   6513500.643
10 0 59249  30222.000000  0    -424930.994   1386092.889   6723541.337
10 0 59249  30342.000000  0     327845.924    864513.099   6815444.647
10 0 59249  30462.000000  0    1065530.179    314808.209   6787606.341
10 0 59249  30582.000000  0    1774847.776   -253051.967   6640510.762
10 0 59249  30702.000000  0    2443193.789   -828552.917   6376723.724
10 0 59249  30822.000000  0    3058856.434  -1400829.357   6000851.228
10 0 59249  30942.000000  0    3611224.953  -1958869.735   5519464.726
10 0 59249  31062.000000  0    4090976.419  -2491728.481   4940991.459
10 0 59249  31182.000000  0    4490237.912  -2988741.479   4275573.009
10 0 59249  31302.000000  0    4802722.121  -3439742.388   3534892.783
10 0 59249  31422.000000  0    5023833.248  -3835273.767   2731973.034
10 0 59249  31542.000000  0    5150739.437  -4166787.523   1880944.211
10 0 59249  31662.000000  0    5182408.753  -4426830.470    996792.473
10 0 59249  31782.000000  0    5119609.514  -4609210.478     95089.840
10 0 59249  31902.000000  0    4964874.149  -4709138.908   -808287.984
10 0 59249  32022.000000  0    4722427.083  -4723344.620  -1697450.277
10 0 59249  32142.000000  0    4398078.324  -4650157.060  -2556779.272
10 0 59249  32262.000000  0    3999086.215  -4489556.473  -3371210.782
10 0 59249  32382.000000  0    3533993.077  -4243190.747  -4126501.637
10 0 59249  32502.000000  0    3012438.755  -3914358.266  -4809478.719
10 0 59249  32622.000000  0    2444955.883  -3507958.319  -5408264.406
10 0 59249  32742.000000  0    1842753.617  -3030411.385  -5912474.032
10 0 59249  32862.000000  0    1217495.741  -2489552.820  -6313385.576
10 0 59249  32982.000000  0     581074.855  -1894500.524  -6604081.016
10 0 59249  33102.000000  0     -54612.113  -1255498.091  -6779555.077
10 0 59249  33222.000000  0    -677881.990   -583738.502  -6836791.302
10 0 59249  33342.000000  0   -1277474.389    108828.695  -6774807.613
10 0 59249  33462.000000  0   -1842750.601    809704.756  -6594670.759
10 0 59249  33582.000000  0   -2363877.900   1506061.497  -6299479.757
10 0 59249  33702.000000  0   -2831997.132   2184970.228  -5894318.429
10 0 59249  33822.000000  0   -3239372.797   2833637.201  -5386177.878
10 0 59249  33942.000000  0   -3579523.103   3439643.225  -4783847.813
10 0 59249  34062.000000  0   -3847327.994   3991182.449  -4097775.463
10 0 59249  34182.000000  0   -4039110.669   4477295.224  -3339893.249
10 0 59249  34302.000000  0   -4152690.699   4888090.250  -2523419.094
10 0 59249  34422.000000  0   -4187409.772   5214951.443  -1662631.101
10 0 59249  34542.000000  0   -4144127.975   5450724.777   -772619.407
10 0 59249  34662.000000  0   -4025188.800   5589880.121    130982.370
10 0 59249  34782.000000  0   -3834353.238   5628640.373   1032278.040
10 0 59249  34902.000000  0   -3576705.347   5565077.964   1915397.105
10 0 59249  35022.000000  0   -3258530.275   5399173.384   2764785.132
10 0 59249  35142.000000  0   -2887166.645   5132832.950   3565486.297
10 0 59249  35262.000000  0   -2470840.271   4769868.421   4303411.722
10 0 59249  35382.000000  0   -2018482.644   4315939.080   4965590.619
10 0 59249  35502.000000  0   -1539539.081   3778457.115   5540398.973
10 0 59249  35622.000000  0   -1043770.087   3166458.720   6017761.368
10 0 59249  35742.000000  0    -541051.732   2490444.529   6389322.285
10 0 59249  35862.000000  0     -41179.518   1762193.814   6648585.511
99
